[
{"city":"ACHERES","postalcode":"18250"},
{"city":"AINAY LE VIEIL","postalcode":"18200"},
{"city":"LES AIX D ANGILLON","postalcode":"18220"},
{"city":"ALLOGNY","postalcode":"18110"},
{"city":"ALLOUIS","postalcode":"18500"},
{"city":"ANNOIX","postalcode":"18340"},
{"city":"APREMONT SUR ALLIER","postalcode":"18150"},
{"city":"ARCAY","postalcode":"18340"},
{"city":"ARCOMPS","postalcode":"18200"},
{"city":"ARDENAIS","postalcode":"18170"},
{"city":"ARGENT SUR SAULDRE","postalcode":"18410"},
{"city":"ARGENVIERES","postalcode":"18140"},
{"city":"ARPHEUILLES","postalcode":"18200"},
{"city":"ASSIGNY","postalcode":"18260"},
{"city":"AUBIGNY SUR NERE","postalcode":"18700"},
{"city":"AUBINGES","postalcode":"18220"},
{"city":"AUGY SUR AUBOIS","postalcode":"18600"},
{"city":"AVORD","postalcode":"18520"},
{"city":"AZY","postalcode":"18220"},
{"city":"BANNAY","postalcode":"18300"},
{"city":"BANNEGON","postalcode":"18210"},
{"city":"BARLIEU","postalcode":"18260"},
{"city":"BAUGY","postalcode":"18800"},
{"city":"BEDDES","postalcode":"18370"},
{"city":"BEFFES","postalcode":"18320"},
{"city":"BELLEVILLE SUR LOIRE","postalcode":"18240"},
{"city":"BENGY SUR CRAON","postalcode":"18520"},
{"city":"BERRY BOUY","postalcode":"18500"},
{"city":"BESSAIS LE FROMENTAL","postalcode":"18210"},
{"city":"BLANCAFORT","postalcode":"18410"},
{"city":"BLET","postalcode":"18350"},
{"city":"BOULLERET","postalcode":"18240"},
{"city":"BOURGES","postalcode":"18000"},
{"city":"BOUZAIS","postalcode":"18200"},
{"city":"BRECY","postalcode":"18220"},
{"city":"BRINAY","postalcode":"18120"},
{"city":"BRINON SUR SAULDRE","postalcode":"18410"},
{"city":"BRUERE ALLICHAMPS","postalcode":"18200"},
{"city":"BUE","postalcode":"18300"},
{"city":"BUSSY","postalcode":"18130"},
{"city":"LA CELETTE","postalcode":"18360"},
{"city":"LA CELLE","postalcode":"18200"},
{"city":"LA CELLE CONDE","postalcode":"18160"},
{"city":"CERBOIS","postalcode":"18120"},
{"city":"CHALIVOY MILON","postalcode":"18130"},
{"city":"CHAMBON","postalcode":"18190"},
{"city":"LA CHAPELLE D ANGILLON","postalcode":"18380"},
{"city":"LA CHAPELLE HUGON","postalcode":"18150"},
{"city":"LA CHAPELLE MONTLINARD","postalcode":"18140"},
{"city":"LA CHAPELLE ST URSIN","postalcode":"18570"},
{"city":"LA CHAPELOTTE","postalcode":"18250"},
{"city":"CHARENTON DU CHER","postalcode":"18210"},
{"city":"CHARENTONNAY","postalcode":"18140"},
{"city":"CHARLY","postalcode":"18350"},
{"city":"CHAROST","postalcode":"18290"},
{"city":"CHASSY","postalcode":"18800"},
{"city":"CHATEAUMEILLANT","postalcode":"18370"},
{"city":"CHATEAUNEUF SUR CHER","postalcode":"18190"},
{"city":"LE CHATELET","postalcode":"18170"},
{"city":"CHAUMONT","postalcode":"18350"},
{"city":"CHAUMOUX MARCILLY","postalcode":"18140"},
{"city":"LE CHAUTAY","postalcode":"18150"},
{"city":"CHAVANNES","postalcode":"18190"},
{"city":"CHERY","postalcode":"18120"},
{"city":"CHEZAL BENOIT","postalcode":"18160"},
{"city":"CIVRAY","postalcode":"18290"},
{"city":"CLEMONT","postalcode":"18410"},
{"city":"COGNY","postalcode":"18130"},
{"city":"COLOMBIERS","postalcode":"18200"},
{"city":"CONCRESSAULT","postalcode":"18260"},
{"city":"CONTRES","postalcode":"18130"},
{"city":"CORNUSSE","postalcode":"18350"},
{"city":"CORQUOY","postalcode":"18190"},
{"city":"COUARGUES","postalcode":"18300"},
{"city":"COURS LES BARRES","postalcode":"18320"},
{"city":"COUST","postalcode":"18210"},
{"city":"COUY","postalcode":"18140"},
{"city":"CREZANCAY SUR CHER","postalcode":"18190"},
{"city":"CREZANCY EN SANCERRE","postalcode":"18300"},
{"city":"CROISY","postalcode":"18350"},
{"city":"CROSSES","postalcode":"18340"},
{"city":"CUFFY","postalcode":"18150"},
{"city":"CULAN","postalcode":"18270"},
{"city":"DAMPIERRE EN CROT","postalcode":"18260"},
{"city":"DAMPIERRE EN GRACAY","postalcode":"18310"},
{"city":"DREVANT","postalcode":"18200"},
{"city":"DUN SUR AURON","postalcode":"18130"},
{"city":"ENNORDRES","postalcode":"18380"},
{"city":"EPINEUIL LE FLEURIEL","postalcode":"18360"},
{"city":"ETRECHY","postalcode":"18800"},
{"city":"FARGES ALLICHAMPS","postalcode":"18200"},
{"city":"FARGES EN SEPTAINE","postalcode":"18800"},
{"city":"FAVERDINES","postalcode":"18360"},
{"city":"FEUX","postalcode":"18300"},
{"city":"FLAVIGNY","postalcode":"18350"},
{"city":"FOECY","postalcode":"18500"},
{"city":"FUSSY","postalcode":"18110"},
{"city":"GARDEFORT","postalcode":"18300"},
{"city":"GARIGNY","postalcode":"18140"},
{"city":"GENOUILLY","postalcode":"18310"},
{"city":"GERMIGNY L EXEMPT","postalcode":"18150"},
{"city":"GIVARDON","postalcode":"18600"},
{"city":"GRACAY","postalcode":"18310"},
{"city":"GROISES","postalcode":"18140"},
{"city":"GRON","postalcode":"18800"},
{"city":"GROSSOUVRE","postalcode":"18600"},
{"city":"LA GROUTTE","postalcode":"18200"},
{"city":"LA GUERCHE SUR L AUBOIS","postalcode":"18150"},
{"city":"HENRICHEMONT","postalcode":"18250"},
{"city":"HERRY","postalcode":"18140"},
{"city":"HUMBLIGNY","postalcode":"18250"},
{"city":"IDS ST ROCH","postalcode":"18170"},
{"city":"IGNOL","postalcode":"18350"},
{"city":"INEUIL","postalcode":"18160"},
{"city":"IVOY LE PRE","postalcode":"18380"},
{"city":"JALOGNES","postalcode":"18300"},
{"city":"JARS","postalcode":"18260"},
{"city":"JOUET SUR L AUBOIS","postalcode":"18320"},
{"city":"JUSSY CHAMPAGNE","postalcode":"18130"},
{"city":"JUSSY LE CHAUDRIER","postalcode":"18140"},
{"city":"LANTAN","postalcode":"18130"},
{"city":"LAPAN","postalcode":"18340"},
{"city":"LAVERDINES","postalcode":"18800"},
{"city":"LAZENAY","postalcode":"18120"},
{"city":"LERE","postalcode":"18240"},
{"city":"LEVET","postalcode":"18340"},
{"city":"LIGNIERES","postalcode":"18160"},
{"city":"LIMEUX","postalcode":"18120"},
{"city":"LISSAY LOCHY","postalcode":"18340"},
{"city":"LOYE SUR ARNON","postalcode":"18170"},
{"city":"LUGNY BOURBONNAIS","postalcode":"18350"},
{"city":"LUGNY CHAMPAGNE","postalcode":"18140"},
{"city":"LUNERY","postalcode":"18400"},
{"city":"LURY SUR ARNON","postalcode":"18120"},
{"city":"MAISONNAIS","postalcode":"18170"},
{"city":"MARCAIS","postalcode":"18170"},
{"city":"MAREUIL SUR ARNON","postalcode":"18290"},
{"city":"MARMAGNE","postalcode":"18500"},
{"city":"MARSEILLE LES AUBIGNY","postalcode":"18320"},
{"city":"MASSAY","postalcode":"18120"},
{"city":"MEHUN SUR YEVRE","postalcode":"18500"},
{"city":"MEILLANT","postalcode":"18200"},
{"city":"MENETOU COUTURE","postalcode":"18320"},
{"city":"MENETOU RATEL","postalcode":"18300"},
{"city":"MENETOU SALON","postalcode":"18510"},
{"city":"MENETREOL SOUS SANCERRE","postalcode":"18300"},
{"city":"MENETREOL SUR SAULDRE","postalcode":"18700"},
{"city":"MEREAU","postalcode":"18120"},
{"city":"MERY ES BOIS","postalcode":"18380"},
{"city":"MERY SUR CHER","postalcode":"18100"},
{"city":"MONTIGNY","postalcode":"18250"},
{"city":"MONTLOUIS","postalcode":"18160"},
{"city":"MORLAC","postalcode":"18170"},
{"city":"MORNAY BERRY","postalcode":"18350"},
{"city":"MORNAY SUR ALLIER","postalcode":"18600"},
{"city":"MOROGUES","postalcode":"18220"},
{"city":"MORTHOMIERS","postalcode":"18570"},
{"city":"MOULINS SUR YEVRE","postalcode":"18390"},
{"city":"NANCAY","postalcode":"18330"},
{"city":"NERONDES","postalcode":"18350"},
{"city":"NEUILLY EN DUN","postalcode":"18600"},
{"city":"NEUILLY EN SANCERRE","postalcode":"18250"},
{"city":"NEUVY DEUX CLOCHERS","postalcode":"18250"},
{"city":"NEUVY LE BARROIS","postalcode":"18600"},
{"city":"NEUVY SUR BARANGEON","postalcode":"18330"},
{"city":"NOHANT EN GOUT","postalcode":"18390"},
{"city":"NOHANT EN GRACAY","postalcode":"18310"},
{"city":"LE NOYER","postalcode":"18260"},
{"city":"NOZIERES","postalcode":"18200"},
{"city":"OIZON","postalcode":"18700"},
{"city":"ORCENAIS","postalcode":"18200"},
{"city":"ORVAL","postalcode":"18200"},
{"city":"OSMERY","postalcode":"18130"},
{"city":"OSMOY","postalcode":"18390"},
{"city":"OUROUER LES BOURDELINS","postalcode":"18350"},
{"city":"PARASSY","postalcode":"18220"},
{"city":"PARNAY","postalcode":"18130"},
{"city":"LA PERCHE","postalcode":"18200"},
{"city":"PIGNY","postalcode":"18110"},
{"city":"PLAIMPIED GIVAUDINS","postalcode":"18340"},
{"city":"PLOU","postalcode":"18290"},
{"city":"POISIEUX","postalcode":"18290"},
{"city":"LE PONDY","postalcode":"18210"},
{"city":"PRECY","postalcode":"18140"},
{"city":"PRESLY","postalcode":"18380"},
{"city":"PREUILLY","postalcode":"18120"},
{"city":"PREVERANGES","postalcode":"18370"},
{"city":"PRIMELLES","postalcode":"18400"},
{"city":"QUANTILLY","postalcode":"18110"},
{"city":"QUINCY","postalcode":"18120"},
{"city":"RAYMOND","postalcode":"18130"},
{"city":"REIGNY","postalcode":"18270"},
{"city":"REZAY","postalcode":"18170"},
{"city":"RIANS","postalcode":"18220"},
{"city":"SAGONNE","postalcode":"18600"},
{"city":"ST AIGNAN DES NOYERS","postalcode":"18600"},
{"city":"ST AMAND MONTROND","postalcode":"18200"},
{"city":"ST AMBROIX","postalcode":"18290"},
{"city":"ST BAUDEL","postalcode":"18160"},
{"city":"ST BOUIZE","postalcode":"18300"},
{"city":"ST CAPRAIS","postalcode":"18400"},
{"city":"ST CEOLS","postalcode":"18220"},
{"city":"ST CHRISTOPHE LE CHAUDRY","postalcode":"18270"},
{"city":"ST DENIS DE PALIN","postalcode":"18130"},
{"city":"ST DOULCHARD","postalcode":"18230"},
{"city":"ST ELOY DE GY","postalcode":"18110"},
{"city":"ST FLORENT SUR CHER","postalcode":"18400"},
{"city":"STE GEMME EN SANCERROIS","postalcode":"18240"},
{"city":"ST GEORGES DE POISIEUX","postalcode":"18200"},
{"city":"ST GEORGES SUR LA PREE","postalcode":"18100"},
{"city":"ST GEORGES SUR MOULON","postalcode":"18110"},
{"city":"ST GERMAIN DES BOIS","postalcode":"18340"},
{"city":"ST GERMAIN DU PUY","postalcode":"18390"},
{"city":"ST HILAIRE DE COURT","postalcode":"18100"},
{"city":"ST HILAIRE DE GONDILLY","postalcode":"18320"},
{"city":"ST HILAIRE EN LIGNIERES","postalcode":"18160"},
{"city":"ST JEANVRIN","postalcode":"18370"},
{"city":"ST JUST","postalcode":"18340"},
{"city":"ST LAURENT","postalcode":"18330"},
{"city":"ST LEGER LE PETIT","postalcode":"18140"},
{"city":"ST LOUP DES CHAUMES","postalcode":"18190"},
{"city":"STE LUNAISE","postalcode":"18340"},
{"city":"ST MARTIN D AUXIGNY","postalcode":"18110"},
{"city":"ST MARTIN DES CHAMPS","postalcode":"18140"},
{"city":"ST MAUR","postalcode":"18270"},
{"city":"ST MICHEL DE VOLANGIS","postalcode":"18390"},
{"city":"STE MONTAINE","postalcode":"18700"},
{"city":"ST OUTRILLE","postalcode":"18310"},
{"city":"ST PALAIS","postalcode":"18110"},
{"city":"ST PIERRE LES BOIS","postalcode":"18170"},
{"city":"ST PIERRE LES ETIEUX","postalcode":"18210"},
{"city":"ST PRIEST LA MARCHE","postalcode":"18370"},
{"city":"ST SATUR","postalcode":"18300"},
{"city":"ST SATURNIN","postalcode":"18370"},
{"city":"STE SOLANGE","postalcode":"18220"},
{"city":"ST SYMPHORIEN","postalcode":"18190"},
{"city":"STE THORETTE","postalcode":"18500"},
{"city":"ST VITTE","postalcode":"18360"},
{"city":"SALIGNY LE VIF","postalcode":"18800"},
{"city":"SANCERGUES","postalcode":"18140"},
{"city":"SANCERRE","postalcode":"18300"},
{"city":"SANCOINS","postalcode":"18600"},
{"city":"SANTRANGES","postalcode":"18240"},
{"city":"SAUGY","postalcode":"18290"},
{"city":"SAULZAIS LE POTIER","postalcode":"18360"},
{"city":"SAVIGNY EN SANCERRE","postalcode":"18240"},
{"city":"SAVIGNY EN SEPTAINE","postalcode":"18390"},
{"city":"SENNECAY","postalcode":"18340"},
{"city":"SENS BEAUJEU","postalcode":"18300"},
{"city":"SERRUELLES","postalcode":"18190"},
{"city":"SEVRY","postalcode":"18140"},
{"city":"SIDIAILLES","postalcode":"18270"},
{"city":"SOULANGIS","postalcode":"18220"},
{"city":"SOYE EN SEPTAINE","postalcode":"18340"},
{"city":"LE SUBDRAY","postalcode":"18570"},
{"city":"SUBLIGNY","postalcode":"18260"},
{"city":"SURY PRES LERE","postalcode":"18240"},
{"city":"SURY EN VAUX","postalcode":"18300"},
{"city":"SURY ES BOIS","postalcode":"18260"},
{"city":"TENDRON","postalcode":"18350"},
{"city":"THAUMIERS","postalcode":"18210"},
{"city":"THAUVENAY","postalcode":"18300"},
{"city":"THENIOUX","postalcode":"18100"},
{"city":"THOU","postalcode":"18260"},
{"city":"TORTERON","postalcode":"18320"},
{"city":"TOUCHAY","postalcode":"18160"},
{"city":"TROUY","postalcode":"18570"},
{"city":"UZAY LE VENON","postalcode":"18190"},
{"city":"VAILLY SUR SAULDRE","postalcode":"18260"},
{"city":"VALLENAY","postalcode":"18190"},
{"city":"VASSELAY","postalcode":"18110"},
{"city":"VEAUGUES","postalcode":"18300"},
{"city":"VENESMES","postalcode":"18190"},
{"city":"VERDIGNY","postalcode":"18300"},
{"city":"VEREAUX","postalcode":"18600"},
{"city":"VERNAIS","postalcode":"18210"},
{"city":"VERNEUIL","postalcode":"18210"},
{"city":"VESDUN","postalcode":"18360"},
{"city":"VIERZON","postalcode":"18100"},
{"city":"VIGNOUX SOUS LES AIX","postalcode":"18110"},
{"city":"VIGNOUX SUR BARANGEON","postalcode":"18500"},
{"city":"VILLABON","postalcode":"18800"},
{"city":"VILLECELIN","postalcode":"18160"},
{"city":"VILLEGENON","postalcode":"18260"},
{"city":"VILLENEUVE SUR CHER","postalcode":"18400"},
{"city":"VILLEQUIERS","postalcode":"18800"},
{"city":"VINON","postalcode":"18300"},
{"city":"VORLY","postalcode":"18340"},
{"city":"VORNAY","postalcode":"18130"},
{"city":"VOUZERON","postalcode":"18330"},
{"city":"BIGNY VALLENAY","postalcode":"18190"},
{"city":"ENTROIS","postalcode":"18350"},
{"city":"LA GRANDE VALLEE","postalcode":"18350"},
{"city":"FOSSE NOUVELLE","postalcode":"18200"},
{"city":"DEJOINTES","postalcode":"18800"}
]